BEIDOU 3 (C01)          
1 36287U 10001A   22134.25955318 -.00000269  00000-0  00000+0 0  9995
2 36287   1.8265  46.4762 0004484  14.7795  44.6160  1.00272151 45179
BEIDOU 5 (C06)          
1 36828U 10036A   22133.56482778 -.00000047  00000-0  00000-0 0  9997
2 36828  54.1892 176.5492 0027830 190.1826 174.6818  1.00256181 43230
BEIDOU 6 (C04)          
1 37210U 10057A   22133.88105016 -.00000100  00000-0  00000-0 0  9998
2 37210   0.7968  43.6079 0001881 155.2874 149.8944  1.00273172 42282
BEIDOU 7 (C07)          
1 37256U 10068A   22134.25957578 -.00000216  00000-0  00000+0 0  9997
2 37256  50.2733 290.0531 0020073 182.1960 320.6887  1.00260379 41809
BEIDOU 8 (C08)          
1 37384U 11013A   22133.56435980 -.00000204  00000-0  00000-0 0  9999
2 37384  60.2440  54.6053 0017906 191.1790 296.6628  1.00265194 40671
BEIDOU 9 (C09)          
1 37763U 11038A   22133.68828063 -.00000005  00000-0  00000-0 0  9997
2 37763  54.4722 179.0346 0096614 227.5369 166.9089  1.00286383 39655
BEIDOU 10 (C10)         
1 37948U 11073A   22134.27977483 -.00000163  00000-0  00000+0 0  9992
2 37948  50.3899 289.6911 0078756 216.8833 280.4230  1.00260620 38419
BEIDOU 11 (C05)         
1 38091U 12008A   22133.93124457  .00000069  00000-0  00000-0 0  9993
2 38091   1.4876  66.4984 0015168 330.5497 228.5197  1.00272395 37483
BEIDOU 12 (C11)         
1 38250U 12018A   22134.04942515 -.00000063  00000-0  00000+0 0  9991
2 38250  56.7017 354.6954 0020496 256.2396 287.9971  1.86234425 68446
BEIDOU 13 (C12)         
1 38251U 12018B   22133.43151413 -.00000062  00000-0  00000-0 0  9993
2 38251  56.6212 354.0427 0011341 261.9352 272.2520  1.86234263 68432
BEIDOU 15 (C14)         
1 38775U 12050B   22133.66863421  .00000068  00000-0  00000-0 0  9999
2 38775  55.3807 112.8553 0015706 321.0039 208.5715  1.86231505 65811
BEIDOU 16 (C02)         
1 38953U 12059A   22134.07986431 -.00000163  00000-0  00000+0 0  9995
2 38953   1.9038  84.4120 0012781 299.4183 320.8210  1.00271507 35057
BEIDOU 17 (C31)         
1 40549U 15019A   22133.56968807 -.00000141  00000-0  00000-0 0  9995
2 40549  51.9476 313.1588 0036800 187.6973  26.2714  1.00250954 26087
BEIDOU 18 (C57)         
1 40748U 15037A   22134.13438943 -.00000063  00000-0  00000+0 0  9995
2 40748  55.8748 352.9068 0005515  28.6727 166.2276  1.86233339 46270
BEIDOU 19 (C58)         
1 40749U 15037B   22133.91519644 -.00000063  00000-0  00000-0 0  9990
2 40749  55.8782 352.9037 0005151 353.2892 189.3253  1.86232428 46269
BEIDOU 20 (C18)         
1 40938U 15053A   22133.50883600 -.00000144  00000-0  00000-0 0  9999
2 40938  51.5571 276.2735 0045987 193.4899  37.6545  1.00254770 24358
BEIDOU IGSO-6 (C13)     
1 41434U 16021A   22133.61899075 -.00000173  00000-0  00000-0 0  9994
2 41434  58.0533  53.1961 0044539 219.9179 275.5631  1.00289724 22488
BEIDOU-2 G7 (C03)       
1 41586U 16037A   22133.85118821 -.00000342  00000-0  00000-0 0  9996
2 41586   1.9023  69.3280 0008915   1.5671 217.6220  1.00275487 21795
BEIDOU-3 M1 (C19)       
1 43001U 17069A   22134.25297336  .00000063  00000-0  00000+0 0  9998
2 43001  55.5348 112.8308 0012598 292.5930  64.9865  1.86231730 30752
BEIDOU-3 M2 (C20)       
1 43002U 17069B   22133.39785363  .00000070  00000-0  00000-0 0  9994
2 43002  55.5347 112.8954 0010732 310.6173 236.7274  1.86231543 30731
BEIDOU-3 M3 (C27)       
1 43107U 18003A   22134.20763396 -.00000066  00000-0  00000+0 0  9997
2 43107  55.3251 353.8362 0005891  52.7945 123.5456  1.86232507 29510
BEIDOU-3 M4 (C28)       
1 43108U 18003B   22134.16325225 -.00000065  00000-0  00000+0 0  9997
2 43108  55.3178 353.8271 0001882 272.4612 278.2072  1.86230916 29510
BEIDOU-3 M5 (C21)       
1 43207U 18018A   22133.25034426  .00000071  00000-0  00000-0 0  9999
2 43207  55.4929 112.9799 0007698 325.5454  34.3946  1.86231734 28888
BEIDOU-3 M6 (C22)       
1 43208U 18018B   22133.31696916  .00000071  00000-0  00000-0 0  9995
2 43208  55.4919 112.9826 0010471 300.8228  59.0640  1.86231678 28889
BEIDOU-3 M7 (C29)       
1 43245U 18029A   22133.28521633 -.00000063  00000-0  00000-0 0  9999
2 43245  55.2400 351.6401 0001430  38.1503 150.1451  1.86232569 28036
BEIDOU-3 M8 (C30)       
1 43246U 18029B   22133.70054181 -.00000063  00000-0  10000-3 0  9990
2 43246  55.2358 351.6558 0004994   8.5442 144.7126  1.86232810 28030
BEIDOU IGSO-7 (C16)     
1 43539U 18057A   22133.68656998 -.00000051  00000-0  00000-0 0  9990
2 43539  55.0722 176.0117 0048745 226.8321 187.2408  1.00268934 14167
BEIDOU-3 M9 (C23)       
1 43581U 18062A   22133.65474568  .00000008  00000-0  00000-0 0  9992
2 43581  54.2858 233.2750 0002939 273.5952  59.8809  1.86231869 25777
BEIDOU-3 M10 (C24)      
1 43582U 18062B   22133.58228279  .00000007  00000-0  00000+0 0  9999
2 43582  54.2848 233.2675 0004420   9.8385   6.8038  1.86232244 25785
BEIDOU-3 M11 (C25)      
1 43602U 18067A   22133.54859051  .00000009  00000-0  00000-0 0  9994
2 43602  54.3678 231.8800 0006775  11.2316  24.2968  1.86231726 25274
BEIDOU-3 M12 (C26)      
1 43603U 18067B   22133.68639149  .00000010  00000-0  00000-0 0  9996
2 43603  54.3649 231.8434 0003836 355.9871  42.3143  1.86231840 25290
BEIDOU-3 M13 (C32)      
1 43622U 18072A   22133.32725905  .00000070  00000-0  00000-0 0  9996
2 43622  55.4601 112.5328 0009070 289.7686 257.1227  1.86231675 24791
BEIDOU-3 M14 (C33)      
1 43623U 18072B   22133.72941958  .00000066  00000-0  00000+0 0  9993
2 43623  55.4614 112.5118 0007015 306.8962 239.8600  1.86231681 24809
BEIDOU-3 M15 (C34)      
1 43647U 18078A   22133.60257892 -.00000064  00000-0  10000-3 0  9993
2 43647  55.1346 351.7901 0007320  11.4441 345.7906  1.86233087 24304
BEIDOU-3 M16 (C35)      
1 43648U 18078B   22133.47966367 -.00000064  00000-0  00000+0 0  9998
2 43648  55.1308 351.8000 0005676  21.3278 161.3492  1.86232259 24328
BEIDOU-3 G1 (C59)       
1 43683U 18085A   22134.16272154 -.00000264  00000-0  00000+0 0  9998
2 43683   0.8614 171.8412 0002902 325.2291 293.4339  1.00274495 13061
BEIDOU-3 M17 (C36)      
1 43706U 18093A   22133.35876891  .00000005  00000-0  00000-0 0  9994
2 43706  54.3676 233.1694 0009213 272.4374  87.4783  1.86231827 23689
BEIDOU-3 M18 (C37)      
1 43707U 18093B   22133.27587161  .00000005  00000-0  00000-0 0  9995
2 43707  54.3683 233.1621 0007265 302.6534  92.8680  1.86232239 23670
BEIDOU-3 IGSO-1 (C38)   
1 44204U 19023A   22133.42588679 -.00000233  00000-0  00000-0 0  9998
2 44204  56.5102  53.3487 0019199 203.4286 246.7175  1.00268617 11363
BEIDOU-2 G8             
1 44231U 19027A   22133.88660422 -.00000235  00000-0  00000-0 0  9991
2 44231   0.7797  74.6745 0003936 125.3656 135.2880  1.00274514 11078
BEIDOU-3 IGSO-2 (C39)   
1 44337U 19035A   22134.01462513 -.00000050  00000-0  00000+0 0  9998
2 44337  55.1109 172.0299 0023214 197.9988 345.5586  1.00263566 10700
BEIDOU-3 M23 (C45)      
1 44542U 19061A   22133.29450386  .00000005  00000-0  00000+0 0  9998
2 44542  54.5937 233.3063 0007415 336.5115  23.4751  1.86231157 17931
BEIDOU-3 M24 (C46)      
1 44543U 19061B   22132.94361275  .00000001  00000-0  00000-0 0  9995
2 44543  54.5933 233.2863 0004456 331.6766  64.3156  1.86231614 17925
BEIDOU-3 IGSO-3         
1 44709U 19073A   22133.85118821 -.00000191  00000-0  00000-0 0  9991
2 44709  57.3196 296.7413 0021859 172.5533 187.8234  1.00266812  9468
BEIDOU-3 M21            
1 44793U 19078A   22133.41376337 -.00000064  00000-0  10000-3 0  9992
2 44793  54.9835 351.8220 0007362  16.3981 168.1840  1.86232308 16794
BEIDOU-3 M22            
1 44794U 19078B   22131.83304674 -.00000066  00000-0  00000-0 0  9990
2 44794  54.9591 351.8693 0005321  15.1835 101.1998  1.86232761 16767
BEIDOU-3 M19            
1 44864U 19090A   22133.65713573  .00000067  00000-0  00000-0 0  9996
2 44864  55.3941 112.7355 0018994 273.0064 180.8273  1.86231885 16381
BEIDOU-3 M20            
1 44865U 19090B   22133.60559637  .00000068  00000-0  00000-0 0  9992
2 44865  55.3965 112.7680 0017443 285.4716 223.6822  1.86231837 16358
BEIDOU-3 G2             
1 45344U 20017A   22134.15077265 -.00000133  00000-0  00000+0 0  9992
2 45344   2.0917 350.3552 0004284  96.7219 279.1102  1.00272177  8283
BEIDOU-3 G3             
1 45807U 20040A   22133.79813397 -.00000344  00000-0  00000-0 0  9990
2 45807   1.5218 302.4167 0006031 337.1295 349.7688  1.00277680  7076
